*******************************************************************************
 Revised: Jul 11, 2019                 EM-L4                               3014
                              (Earth-Moon Lagrange 4)

  #1) The Earth-Moon Lagrange-4 point (EM-L4) is a location where the Moon's 
       gravitational field partially counters that of the Earth. EM-L4 is one 
       of the stable "Trojan" points (along with EM-L5). Small perturbations 
       can displace an object from EM-L4, but it can return to the stable 
       point.

  #2) EM-L4 lies 60 degrees ahead of the Earth-Moon system along the Moon's 
       orbit in plane of the orbit. It is about 1 lunar distance from the 
       Earth and from the Moon (straight-lines), so 356000 to 407000 km,
       averaging 385000 km from Earth and Moon centers, forming the apex of
       an equilateral triangle, with the Earth and Moon defining the base-line.

 Time-span available: 1900-Jan-01 to 2151-Jan-01
*******************************************************************************


*******************************************************************************
Ephemeris / WWW_USER Sun Jan 30 17:53:58 2022 Pasadena, USA      / Horizons
*******************************************************************************
Target body name: EM-L4 (3014)                    {source: Earth-Moon_L4}
Center body name: Solar System Barycenter (0)     {source: DE441}
Center-site name: BODY CENTER
*******************************************************************************
Start time      : A.D. 2020-Jan-01 00:00:00.0000 TDB
Stop  time      : A.D. 2022-Mar-01 00:00:00.0000 TDB
Step-size       : 360 minutes
*******************************************************************************
Center geodetic : 0.00000000,0.00000000,0.0000000 {E-lon(deg),Lat(deg),Alt(km)}
Center cylindric: 0.00000000,0.00000000,0.0000000 {E-lon(deg),Dxy(km),Dz(km)}
Center radii    : (undefined)                                                  
Output units    : AU-D
Output type     : GEOMETRIC cartesian states
Output format   : 2 (position and velocity)
Reference frame : ICRF
*******************************************************************************
JDTDB
   X     Y     Z
   VX    VY    VZ
*******************************************************************************
$$SOE
2459435.750000000 = A.D. 2021-Aug-09 06:00:00.0000 TDB 
 X = 7.262053578853368E-01 Y =-6.362324073962479E-01 Z =-2.754786910863495E-01
 VX= 1.181112234510861E-02 VY= 1.093969178534464E-02 VZ= 4.698713683222679E-03
2459436.000000000 = A.D. 2021-Aug-09 12:00:00.0000 TDB 
 X = 7.291553158430588E-01 Y =-6.334900004052899E-01 Z =-2.743010334816948E-01
 VX= 1.178838343791612E-02 VY= 1.099979972941124E-02 VZ= 4.722671839984611E-03
2459436.250000000 = A.D. 2021-Aug-09 18:00:00.0000 TDB 
 X = 7.320994660227887E-01 Y =-6.307323910503475E-01 Z =-2.731172930163916E-01
 VX= 1.176464156081607E-02 VY= 1.106130521403165E-02 VZ= 4.747375684383877E-03
2459436.500000000 = A.D. 2021-Aug-10 00:00:00.0000 TDB 
 X = 7.350375437795966E-01 Y =-6.279592343521161E-01 Z =-2.719272840727731E-01
 VX= 1.173978558587439E-02 VY= 1.112417181585129E-02 VZ= 4.772818214325352E-03
2459436.750000000 = A.D. 2021-Aug-10 06:00:00.0000 TDB 
 X = 7.379692567811380E-01 Y =-6.251701953226070E-01 Z =-2.707308232135969E-01
 VX= 1.171370524555887E-02 VY= 1.118835601768141E-02 VZ= 4.798988974172676E-03
2459437.000000000 = A.D. 2021-Aug-10 12:00:00.0000 TDB 
 X = 7.408942853013457E-01 Y =-6.223649507438077E-01 Z =-2.695277300551570E-01
 VX= 1.168629176402437E-02 VY= 1.125380717614860E-02 VZ= 4.825873981089967E-03
2459437.250000000 = A.D. 2021-Aug-10 18:00:00.0000 TDB 
 X = 7.438122826735551E-01 Y =-6.195431909474415E-01 Z =-2.683178281556410E-01
 VX= 1.165743850009646E-02 VY= 1.132046754541684E-02 VZ= 4.853455676928783E-03
2459437.500000000 = A.D. 2021-Aug-11 00:00:00.0000 TDB 
 X = 7.467228759050809E-01 Y =-6.167046215817154E-01 Z =-2.671009459122253E-01
 VX= 1.162704159467176E-02 VY= 1.138827235755643E-02 VZ= 4.881712906542279E-03
2459437.750000000 = A.D. 2021-Aug-11 06:00:00.0000 TDB 
 X = 7.496256664534460E-01 Y =-6.138489653509362E-01 Z =-2.658769174602356E-01
 VX= 1.159500061535354E-02 VY= 1.145714995907210E-02 VZ= 4.910620923005832E-03
2459438.000000000 = A.D. 2021-Aug-11 12:00:00.0000 TDB 
 X = 7.525202311626897E-01 Y =-6.109759637141118E-01 Z =-2.646455835676325E-01
 VX= 1.156121919132256E-02 VY= 1.152702200219172E-02 VZ= 4.940151419740484E-03
2459438.250000000 = A.D. 2021-Aug-11 18:00:00.0000 TDB 
 X = 7.554061233565014E-01 Y =-6.080853785290998E-01 Z =-2.634067925181453E-01
 VX= 1.152560563202614E-02 VY= 1.159780368877455E-02 VZ= 4.970272589114032E-03
2459438.500000000 = A.D. 2021-Aug-12 00:00:00.0000 TDB 
 X = 7.582828740833693E-01 Y =-6.051769936295156E-01 Z =-2.621604009765294E-01
 VX= 1.148807352371571E-02 VY= 1.166940406378946E-02 VZ= 5.000949206675312E-03
2459438.750000000 = A.D. 2021-Aug-12 06:00:00.0000 TDB 
 X = 7.611499935075559E-01 Y =-6.022506163224052E-01 Z =-2.609062748296702E-01
 VX= 1.144854229868706E-02 VY= 1.174172635508120E-02 VZ= 5.032142739925295E-03
2459439.000000000 = A.D. 2021-Aug-12 12:00:00.0000 TDB 
 X = 7.640069724385017E-01 Y =-5.993060787956188E-01 Z =-2.596442899975820E-01
 VX= 1.140693777280376E-02 VY= 1.181466835534921E-02 VZ= 5.063811480149161E-03
2459439.250000000 = A.D. 2021-Aug-12 18:00:00.0000 TDB 
 X = 7.668532839902636E-01 Y =-5.963432394248236E-01 Z =-2.583743332087268E-01
 VX= 1.136319264775175E-02 VY= 1.188812284235665E-02 VZ= 5.095910695733670E-03
2459439.500000000 = A.D. 2021-Aug-13 00:00:00.0000 TDB 
 X = 7.696883853618156E-01 Y =-5.933619839711298E-01 Z =-2.570963027344957E-01
 VX= 1.131724697525940E-02 VY= 1.196197803309831E-02 VZ= 5.128392805257162E-03
2459439.750000000 = A.D. 2021-Aug-13 06:00:00.0000 TDB 
 X = 7.725117197284315E-01 Y =-5.903622266613592E-01 Z =-2.558101090781339E-01
 VX= 1.126904858129815E-02 VY= 1.203611806784458E-02 VZ= 5.161207568574831E-03
2459440.000000000 = A.D. 2021-Aug-13 12:00:00.0000 TDB 
 X = 7.753227182339850E-01 Y =-5.873439111439728E-01 Z =-2.545156756138180E-01
 VX= 1.121855344902226E-02 VY= 1.211042352019039E-02 VZ= 5.194302294210104E-03
2459440.250000000 = A.D. 2021-Aug-13 18:00:00.0000 TDB 
 X = 7.781208020737395E-01 Y =-5.843070113146154E-01 Z =-2.532129391720204E-01
 VX= 1.116572605970303E-02 VY= 1.218477192950674E-02 VZ= 5.227622061431531E-03
2459440.500000000 = A.D. 2021-Aug-14 00:00:00.0000 TDB 
 X = 7.809053846570930E-01 Y =-5.812515320060724E-01 Z =-2.519018505676716E-01
 VX= 1.111053969140173E-02 VY= 1.225903835272668E-02 VZ= 5.261109955553171E-03
2459440.750000000 = A.D. 2021-Aug-14 06:00:00.0000 TDB 
 X = 7.836758738397077E-01 Y =-5.781775095381545E-01 Z =-2.505823750679792E-01
 VX= 1.105297667539392E-02 VY= 1.233309593269770E-02 VZ= 5.294707315192686E-03
2459441.000000000 = A.D. 2021-Aug-14 12:00:00.0000 TDB 
 X = 7.864316742144759E-01 Y =-5.750850121236479E-01 Z =-2.492544927970495E-01
 VX= 1.099302861044347E-02 VY= 1.240681648100295E-02 VZ= 5.328353990425617E-03
2459441.250000000 = A.D. 2021-Aug-14 18:00:00.0000 TDB 
 X = 7.891721894507909E-01 Y =-5.719741401269528E-01 Z =-2.479181990747013E-01
 VX= 1.093069653498563E-02 VY= 1.248007107336773E-02 VZ= 5.361988610977591E-03
2459441.500000000 = A.D. 2021-Aug-15 00:00:00.0000 TDB 
 X = 7.918968246715916E-01 Y =-5.688450261724294E-01 Z =-2.465735046870468E-01
 VX= 1.086599105706841E-02 VY= 1.255273065637008E-02 VZ= 5.395548863789623E-03
2459441.750000000 = A.D. 2021-Aug-15 06:00:00.0000 TDB 
 X = 7.946049888575635E-01 Y =-5.656978350997905E-01 Z =-2.452204360865621E-01
 VX= 1.079893244154193E-02 VY= 1.262466666419880E-02 VZ= 5.428971779457759E-03
2459442.000000000 = A.D. 2021-Aug-15 12:00:00.0000 TDB 
 X = 7.972960972677035E-01 Y =-5.625327637641309E-01 Z =-2.438590355194849E-01
 VX= 1.072955065358419E-02 VY= 1.269575164464425E-02 VZ= 5.462194027138943E-03
2459442.250000000 = A.D. 2021-Aug-15 18:00:00.0000 TDB 
 X = 7.999695738651494E-01 Y =-5.593500406784337E-01 Z =-2.424893610784673E-01
 VX= 1.065788535701632E-02 VY= 1.276585989310925E-02 VZ= 5.495152217506807E-03
2459442.500000000 = A.D. 2021-Aug-16 00:00:00.0000 TDB 
 X = 8.026248537367489E-01 Y =-5.561499254966656E-01 Z =-2.411114866785156E-01
 VX= 1.058398586548757E-02 VY= 1.283486809365885E-02 VZ= 5.527783213441944E-03
2459442.750000000 = A.D. 2021-Aug-16 06:00:00.0000 TDB 
 X = 8.052613854942644E-01 Y =-5.529327083359055E-01 Z =-2.397255019543587E-01
 VX= 1.050791104397186E-02 VY= 1.290265596541948E-02 VZ= 5.560024447813967E-03
2459443.000000000 = A.D. 2021-Aug-16 12:00:00.0000 TDB 
 X = 8.078786336444395E-01 Y =-5.496987089364020E-01 Z =-2.383315120775488E-01
 VX= 1.042972915758246E-02 VY= 1.296910691233990E-02 VZ= 5.591814247676784E-03
2459443.250000000 = A.D. 2021-Aug-16 18:00:00.0000 TDB 
 X = 8.104760809143431E-01 Y =-5.464482756590554E-01 Z =-2.369296374918229E-01
 VX= 1.034951766444518E-02 VY= 1.303410867352748E-02 VZ= 5.623092163803344E-03
2459443.500000000 = A.D. 2021-Aug-17 00:00:00.0000 TDB 
 X = 8.130532305175834E-01 Y =-5.431817843206037E-01 Z =-2.355200135655530E-01
 VX= 1.026736294919571E-02 VY= 1.309755397058371E-02 VZ= 5.653799304149503E-03
2459443.750000000 = A.D. 2021-Aug-17 06:00:00.0000 TDB 
 X = 8.156096083461080E-01 Y =-5.398996368678084E-01 Z =-2.341027901605293E-01
 VX= 1.018335999362956E-02 VY= 1.315934114747394E-02 VZ= 5.683878669395767E-03
2459444.000000000 = A.D. 2021-Aug-17 12:00:00.0000 TDB 
 X = 8.181447650715026E-01 Y =-5.366022598931629E-01 Z =-2.326781311168380E-01
 VX= 1.009761198155206E-02 VY= 1.321937479746491E-02 VZ= 5.713275488208362E-03
2459444.250000000 = A.D. 2021-Aug-17 18:00:00.0000 TDB 
 X = 8.206582781389918E-01 Y =-5.332901029961438E-01 Z =-2.312462136542459E-01
 VX= 1.001022983521407E-02 VY= 1.327756637070093E-02 VZ= 5.741937549404784E-03
